STARLINK-31097          
1 58718U 24002P   25007.76299431  .00001043  00000+0  92167-4 0  9998
2 58718  53.1615  20.3644 0001515 103.4290 256.6868 15.04937135 57205
STARLINK-31051          
1 58719U 24002Q   25007.75976616 -.00001440  00000+0 -81228-4 0  9994
2 58719  53.1614  20.3418 0001648  80.3365 279.7811 15.04930954 57203
STARLINK-31027          
1 58720U 24002R   25008.42067187  .00002142  00000+0  16893-3 0  9998
2 58720  53.1618  17.3560 0001368  90.3832 269.7314 15.04928099 57150
STARLINK-30972          
1 58721U 24002S   25007.75333021 -.00001530  00000+0 -87516-4 0  9990
2 58721  53.1605  20.3052 0001727  94.9319 265.1868 15.04933582 57209
STARLINK-31040          
1 58722U 24002T   25008.21392806  .00005015  00000+0  36936-3 0  9998
2 58722  53.1609  18.2036 0001710  88.0800 272.0385 15.04934592 57240
STARLINK-31033          
1 58723U 24002U   25008.39706922  .00004060  00000+0  30277-3 0  9997
2 58723  53.1612  17.2123 0001553  86.2469 273.8698 15.04932564 57149
STARLINK-30893          
1 58724U 24002V   25007.74583075 -.00000304  00000+0 -18282-5 0  9991
2 58724  53.1628  20.2668 0001591  82.4082 277.7089 15.04928613 57200
STARLINK-30856          
1 58725U 24002W   25008.20749193  .00002161  00000+0  17027-3 0  9994
2 58725  53.1619  18.1688 0001516  94.7433 265.3730 15.04920906 57126
STARLINK-31155          
1 58728U 24005A   25007.48667548 -.00002520  00000+0 -17155-3 0  9995
2 58728  43.0046  17.1567 0000887 288.3111  71.7635 15.02539990 56321
STARLINK-31115          
1 58729U 24005B   25007.41686501  .00001269  00000+0  10898-3 0  9993
2 58729  43.0048  17.4802 0000632 264.5383  95.5387 15.02536357 56292
STARLINK-31150          
1 58730U 24005C   25008.36277585 -.00003225  00000+0 -69893-4 0  9994
2 58730  42.9996 241.7532 0002271 266.3247  93.7350 15.40726227 57960
STARLINK-31204          
1 58731U 24005D   25008.42549275  .00000761  00000+0  71443-4 0  9994
2 58731  43.0034  13.8575 0001259 273.8072  86.2626 15.02530613 56439
STARLINK-31180          
1 58732U 24005E   25008.44067716  .00001880  00000+0  15422-3 0  9999
2 58732  43.0044  12.2718 0001623 272.4242  87.6414 15.02526798 56464
STARLINK-31164          
1 58733U 24005F   25007.74604080  .00000103  00000+0  22724-4 0  9994
2 58733  43.0061  16.5075 0001370 272.3315  87.7370 15.02538436 56336
STARLINK-31152          
1 58734U 24005G   25007.74271362 -.00000383  00000+0 -13249-4 0  9992
2 58734  43.0042  16.4832 0001218 261.4870  98.5835 15.02534869 56345
STARLINK-31157          
1 58735U 24005H   25008.07177224  .00002112  00000+0  17140-3 0  9995
2 58735  43.0057  14.6520 0001579 271.4544  88.6117 15.02531873 56395
STARLINK-31076          
1 58736U 24005J   25008.46730995  .00006473  00000+0  49367-3 0  9999
2 58736  43.0039  12.4585 0001273 278.2862  81.7836 15.02547451 56517
STARLINK-31101          
1 58737U 24005K   25007.72939168 -.00000620  00000+0 -30832-4 0  9999
2 58737  43.0052  16.3797 0001272 259.1454 100.9245 15.02540791 56333
STARLINK-31108          
1 58738U 24005L   25008.06511659  .00000253  00000+0  33772-4 0  9995
2 58738  43.0046  14.6004 0001323 266.0213  94.0478 15.02547602 56414
STARLINK-31042          
1 58739U 24005M   25008.05845768  .00004373  00000+0  33856-3 0  9995
2 58739  43.0027  14.5497 0001085 280.2065  79.8655 15.02535729 56399
STARLINK-31159          
1 58740U 24005N   25008.05512681  .00003297  00000+0  25904-3 0  9991
2 58740  43.0000  14.5236 0001444 285.4253  74.6430 15.02535202 56499
STARLINK-31148          
1 58741U 24005P   25008.05180011  .00001540  00000+0  12903-3 0  9994
2 58741  43.0025  14.5181 0001105 268.3538  91.7178 15.02530135 56394
STARLINK-31151          
1 58742U 24005Q   25008.04847105 -.00001595  00000+0 -10309-3 0  9998
2 58742  43.0023  14.4929 0001634 289.8457  70.2209 15.02515477 56497
STARLINK-31156          
1 58743U 24005R   25007.71275602  .00012519  00000+0  93996-3 0  9998
2 58743  42.9992  16.2733 0000778  27.7973 332.2910 15.02543177 56391
STARLINK-31167          
1 58744U 24005S   25007.55984877 -.00012540  00000+0 -47067-3 0  9996
2 58744  43.0007 317.3158 0001415 274.1556  85.9133 15.25888459 57076
STARLINK-31176          
1 58745U 24005T   25007.70609105  .00002984  00000+0  23587-3 0  9992
2 58745  43.0042  16.2220 0000626 263.6747  96.4024 15.02531936 56388
STARLINK-31181          
1 58746U 24005U   25008.18312868  .00009417  00000+0  35009-3 0  9993
2 58746  43.0006 313.3833 0002402 219.8380 140.2296 15.27693274 57178
STARLINK-31183          
1 58747U 24005V   25008.03182310  .00000699  00000+0  66882-4 0  9992
2 58747  43.0064  14.3662 0001798 264.4083  95.6554 15.02518625 56497
STARLINK-31165          
1 58748U 24005W   25007.70275660 -.00009024  00000+0 -65317-3 0  9991
2 58748  43.0048  16.1953 0000832 278.1660  81.9088 15.02572596 56345
STARLINK-31160          
1 58749U 24005X   25007.36037159  .00000121  00000+0  24050-4 0  9990
2 58749  43.0030  17.8597 0001323 270.2815  89.7875 15.02533724 56294
STARLINK-31179          
1 58750U 24005Y   25008.02848542  .00001943  00000+0  15888-3 0  9993
2 58750  43.0047  14.3380 0001063 260.4658  99.6065 15.02534316 56393
STARLINK-31127          
1 58765U 24011A   25007.68838679 -.00002121  00000+0 -12877-3 0  9993
2 58765  53.1600 159.8016 0001574  96.8384 263.2784 15.04943786 55518
STARLINK-31114          
1 58766U 24011B   25007.70437038  .00000472  00000+0  52349-4 0  9995
2 58766  53.1596 159.2031 0001213  88.7817 271.3312 15.04927454 55527
STARLINK-31140          
1 58767U 24011C   25008.15005902 -.00000139  00000+0  96511-5 0  9998
2 58767  53.1571 157.7051 0001120  76.8723 283.2392 15.04933976 55567
STARLINK-31145          
1 58768U 24011D   25007.68195556 -.00000631  00000+0 -24700-4 0  9999
2 58768  53.1575 159.7613 0001631  93.5512 266.5665 15.04926615 55511
STARLINK-31146          
1 58769U 24011E   25007.67766646  .00000379  00000+0  45813-4 0  9998
2 58769  53.1570 159.7339 0000894  81.4879 278.6212 15.04926517 55517
STARLINK-31143          
1 58770U 24011F   25007.74085799 -.00002026  00000+0 -12223-3 0  9992
2 58770  53.1582 159.4185 0001038  92.1259 267.9850 15.04912271 55522
STARLINK-31135          
1 58771U 24011G   25007.67122640  .00002251  00000+0  17662-3 0  9992
2 58771  53.1604 159.6960 0001394  81.5485 278.5663 15.04917052 55510
STARLINK-31136          
1 58772U 24011H   25008.13288119 -.00006606  00000+0 -44214-3 0  9992
2 58772  53.1594 157.6005 0001576  79.4660 280.6507 15.04956532 55562
STARLINK-31073          
1 58773U 24011J   25008.12967452 -.00000482  00000+0 -14313-4 0  9990
2 58773  53.1602 157.5801 0001231 100.9956 259.1173 15.04907843 55462
STARLINK-31122          
1 58774U 24011K   25008.12645615 -.00001852  00000+0 -11009-3 0  9995
2 58774  53.1594 157.5592 0001116  94.9180 265.1937 15.04915116 55561
STARLINK-31123          
1 58775U 24011L   25007.79117493 -.00000043  00000+0  16361-4 0  9993
2 58775  53.1594 159.0227 0001335  82.6892 277.4249 15.04921057 55531
STARLINK-31117          
1 58776U 24011M   25007.85436742  .00000625  00000+0  63050-4 0  9994
2 58776  53.1595 158.7070 0001781  90.9773 269.1420 15.04926823 55546
STARLINK-31132          
1 58777U 24011N   25007.73627661  .00005144  00000+0  18575-3 0  9996
2 58777  53.1602 102.0499 0001119  99.7785 260.3343 15.30186162 56347
STARLINK-31120          
1 58778U 24011P   25007.44517511  .00000058  00000+0  23412-4 0  9993
2 58778  53.1584 160.4192 0001274  93.4635 266.6500 15.04919167 55480
STARLINK-31142          
1 58779U 24011Q   25007.71510397 -.00000084  00000+0  13486-4 0  9999
2 58779  53.1584 159.2599 0001397  88.5307 271.5843 15.04922667 55524
STARLINK-31099          
1 58781U 24011S   25007.70115482  .00000004  00000+0  19682-4 0  9992
2 58781  53.1582 159.1689 0001657  90.1148 270.0031 15.04921000 55528
STARLINK-31060          
1 58782U 24011T   25008.45819489  .00095403  00000+0  11868-2 0  9997
2 58782  53.1548  85.8837 0007067 264.4095  95.6112 15.59182778 56511
STARLINK-31047          
1 58783U 24011U   25007.68279392  .00011249  00000+0  78466-3 0  9999
2 58783  53.1578 159.0571 0001568 105.0167 255.0997 15.05836640 55522
STARLINK-31039          
1 58784U 24011V   25007.69793484 -.00000057  00000+0  15425-4 0  9997
2 58784  53.1583 159.1468 0001422  89.6735 270.4418 15.04922387 55524
STARLINK-31034          
1 58785U 24011W   25007.65407863  .00093828  00000+0  25469-2 0  9991
2 58785  53.1571  99.3839 0005084 355.2405   4.8549 15.36832670 56371
STARLINK-31024          
1 58786U 24011X   25007.82753994 -.00004855  00000+0 -32018-3 0  9993
2 58786  53.1611 158.5344 0001465  75.9661 284.1492 15.04903861 55549
STARLINK-31189          
1 58787U 24012A   25007.79722680  .00005905  00000+0  23519-3 0  9990
2 58787  43.0029  47.6758 0002312 264.7663  95.2924 15.25939678 56135
STARLINK-31185          
1 58788U 24012B   25008.44953380  .00004963  00000+0  19940-3 0  9993
2 58788  43.0009  43.9687 0000852 271.9769  88.0984 15.25913883 56235
STARLINK-31166          
1 58789U 24012C   25008.46522672  .00003628  00000+0  14840-3 0  9993
2 58789  42.9986  43.2121 0001241 264.2201  95.8509 15.25922573 56104
STARLINK-31187          
1 58790U 24012D   25008.11772434  .00005223  00000+0  20938-3 0  9998
2 58790  43.0007  45.7867 0000288   4.8782 355.2071 15.25905936 56198
STARLINK-31162          
1 58791U 24012E   25008.46310607  .00004180  00000+0  16952-3 0  9999
2 58791  43.0027  44.0694 0000669 223.9736 136.1062 15.25915443 56254
STARLINK-31184          
1 58793U 24012G   25008.43822442  .00010442  00000+0  40826-3 0  9998
2 58793  42.9992  43.8914 0001130 247.9437 112.1294 15.25924597 56155
STARLINK-31192          
1 58794U 24012H   25008.45842799  .00026455  00000+0  10157-2 0  9992
2 58794  43.0009  43.1639 0000998 270.5877  89.4859 15.25970007 56100
